[Satellite]
VERSION=1.1
NAME=METEOSAT-5 (MOP-2)
NICKNAME=METEOSAT-5 (MOP-2)
TLE1=1 21140U 91015B   11058.21057959 -.00000234  00000-0  10000-3 0  5548
TLE2=2 21140  12.2083  42.4377 0002793 158.2330 201.8310  0.98453567 75189
